[{"OBJECT_NAME":"STARLINK-2752","OBJECT_ID":"2021-044BG","EPOCH":"2026-03-10T00:00:02.999808","MEAN_MOTION":15.3016501,"ECCENTRICITY":0.0001606,"INCLINATION":53.1594,"RA_OF_ASC_NODE":73.8214,"ARG_OF_PERICENTER":99.0542,"MEAN_ANOMALY":90.7161,"EPHEMERIS_TYPE":0,"CLASSIFICATION_TYPE":"U","NORAD_CAT_ID":48692,"ELEMENT_SET_NO":999,"REV_AT_EPOCH":574,"BSTAR":0.0013729382,"MEAN_MOTION_DOT":0.00040481,"MEAN_MOTION_DDOT":0},{"OBJECT_NAME":"HAWK-11B","OBJECT_ID":"2024-247C","EPOCH":"2026-03-09T10:44:06.809856","MEAN_MOTION":15.2884707,"ECCENTRICITY":0.00046902,"INCLINATION":45.0161,"RA_OF_ASC_NODE":115.761,"ARG_OF_PERICENTER":333.0326,"MEAN_ANOMALY":27.0314,"EPHEMERIS_TYPE":0,"CLASSIFICATION_TYPE":"U","NORAD_CAT_ID":62379,"ELEMENT_SET_NO":999,"REV_AT_EPOCH":6773,"BSTAR":0.00032841927,"MEAN_MOTION_DOT":9.093e-5,"MEAN_MOTION_DDOT":0}]
